{
  "type": "FeatureCollection",
  "features": [
    {
      "type": "Feature",
      "properties": {
        "norad_id": 58701,
        "name": "TIANMU-1 16",
        "group": "weather",
        "lat": 54.02568556938906,
        "lon": -10.836600450202592,
        "alt_km": 491.1437580538013,
        "timestamp": "2025-12-03T20:47:57.859679+00:00",
        "meta_object_name": "TIANMU-1 16",
        "meta_object_id": "2024-004B",
        "meta_epoch": "2025-12-02T23:46:09.262272",
        "meta_mean_motion": 15.24215807,
        "meta_eccentricity": 0.00050547,
        "meta_inclination": 97.4572,
        "meta_ra_of_asc_node": 157.8955,
        "meta_arg_of_pericenter": 336.3217,
        "meta_mean_anomaly": 23.7787,
        "meta_ephemeris_type": 0,
        "meta_classification_type": "U",
        "meta_norad_cat_id": 58701,
        "meta_element_set_no": 999,
        "meta_rev_at_epoch": 10586,
        "meta_bstar": 6.5908855e-05,
        "meta_mean_motion_dot": 1.535e-05,
        "meta_mean_motion_ddot": 0,
        "tle_line1": "1 58701U 24004B   25336.99038498  .00001535  00000+0  65909-4 0  9996",
        "tle_line2": "2 58701  97.4572 157.8955 0005054 336.3217  23.7787 15.24215807105865"
      },
      "geometry": {
        "type": "Point",
        "coordinates": [
          -10.836600450202592,
          54.02568556938906
        ]
      }
    },
    {
      "type": "Feature",
      "properties": {
        "norad_id": 58702,
        "name": "TIANMU-1 17",
        "group": "weather",
        "lat": -28.128863798100493,
        "lon": -24.84418245802294,
        "alt_km": 500.7153466681375,
        "timestamp": "2025-12-03T20:47:57.859690+00:00",
        "meta_object_name": "TIANMU-1 17",
        "meta_object_id": "2024-004C",
        "meta_epoch": "2025-12-03T12:00:38.111904",
        "meta_mean_motion": 15.24278965,
        "meta_eccentricity": 0.000432,
        "meta_inclination": 97.4597,
        "meta_ra_of_asc_node": 158.8081,
        "meta_arg_of_pericenter": 338.7156,
        "meta_mean_anomaly": 21.3901,
        "meta_ephemeris_type": 0,
        "meta_classification_type": "U",
        "meta_norad_cat_id": 58702,
        "meta_element_set_no": 999,
        "meta_rev_at_epoch": 10593,
        "meta_bstar": 0.0003927,
        "meta_mean_motion_dot": 9.525e-05,
        "meta_mean_motion_ddot": 0,
        "tle_line1": "1 58702U 24004C   25337.50044111  .00009525  00000+0  39270-3 0  9992",
        "tle_line2": "2 58702  97.4597 158.8081 0004320 338.7156  21.3901 15.24278965105931"
      },
      "geometry": {
        "type": "Point",
        "coordinates": [
          -24.84418245802294,
          -28.128863798100493
        ]
      }
    },
    {
      "type": "Feature",
      "properties": {
        "norad_id": 58703,
        "name": "TIANMU-1 18",
        "group": "weather",
        "lat": -59.10115917833663,
        "lon": 172.016148502672,
        "alt_km": 498.14705793312896,
        "timestamp": "2025-12-03T20:47:57.859701+00:00",
        "meta_object_name": "TIANMU-1 18",
        "meta_object_id": "2024-004D",
        "meta_epoch": "2025-12-03T13:11:02.803200",
        "meta_mean_motion": 15.24271752,
        "meta_eccentricity": 0.0003667,
        "meta_inclination": 97.4615,
        "meta_ra_of_asc_node": 159.0502,
        "meta_arg_of_pericenter": 339.9142,
        "meta_mean_anomaly": 20.1951,
        "meta_ephemeris_type": 0,
        "meta_classification_type": "U",
        "meta_norad_cat_id": 58703,
        "meta_element_set_no": 999,
        "meta_rev_at_epoch": 10594,
        "meta_bstar": 0.00037929,
        "meta_mean_motion_dot": 9.194e-05,
        "meta_mean_motion_ddot": 0,
        "tle_line1": "1 58703U 24004D   25337.54933800  .00009194  00000+0  37929-3 0  9990",
        "tle_line2": "2 58703  97.4615 159.0502 0003667 339.9142  20.1951 15.24271752105945"
      },
      "geometry": {
        "type": "Point",
        "coordinates": [
          172.016148502672,
          -59.10115917833663
        ]
      }
    },
    {
      "type": "Feature",
      "properties": {
        "norad_id": 58990,
        "name": "INSAT-3DS",
        "group": "weather",
        "lat": 0.021333712337948483,
        "lon": 106.98653331308222,
        "alt_km": 35793.54236545593,
        "timestamp": "2025-12-03T20:47:57.859712+00:00",
        "meta_object_name": "INSAT-3DS",
        "meta_object_id": "2024-033A",
        "meta_epoch": "2025-12-03T10:43:15.661056",
        "meta_mean_motion": 1.00268855,
        "meta_eccentricity": 0.000176,
        "meta_inclination": 0.0143,
        "meta_ra_of_asc_node": 319.5718,
        "meta_arg_of_pericenter": 300.1451,
        "meta_mean_anomaly": 55.7177,
        "meta_ephemeris_type": 0,
        "meta_classification_type": "U",
        "meta_norad_cat_id": 58990,
        "meta_element_set_no": 999,
        "meta_rev_at_epoch": 4510,
        "meta_bstar": 0,
        "meta_mean_motion_dot": 0,
        "meta_mean_motion_ddot": 0,
        "tle_line1": "1 58990U 24033A   25337.44670904  .00000000  00000+0  00000+0 0  9995",
        "tle_line2": "2 58990   0.0143 319.5718 0001760 300.1451  55.7177  1.00268855 45100"
      },
      "geometry": {
        "type": "Point",
        "coordinates": [
          106.98653331308222,
          0.021333712337948483
        ]
      }
    },
    {
      "type": "Feature",
      "properties": {
        "norad_id": 59051,
        "name": "METEOR-M2 4",
        "group": "weather",
        "lat": 52.16911617745119,
        "lon": 126.2539314944976,
        "alt_km": 813.6427346116461,
        "timestamp": "2025-12-03T20:47:57.859723+00:00",
        "meta_object_name": "METEOR-M2 4",
        "meta_object_id": "2024-039A",
        "meta_epoch": "2025-12-03T11:45:51.030144",
        "meta_mean_motion": 14.22398914,
        "meta_eccentricity": 0.0007534,
        "meta_inclination": 98.6752,
        "meta_ra_of_asc_node": 294.5447,
        "meta_arg_of_pericenter": 24.2119,
        "meta_mean_anomaly": 335.9411,
        "meta_ephemeris_type": 0,
        "meta_classification_type": "U",
        "meta_norad_cat_id": 59051,
        "meta_element_set_no": 999,
        "meta_rev_at_epoch": 9144,
        "meta_bstar": 4.7067e-05,
        "meta_mean_motion_dot": 6.1e-07,
        "meta_mean_motion_ddot": 0,
        "tle_line1": "1 59051U 24039A   25337.49017396  .00000061  00000+0  47067-4 0  9991",
        "tle_line2": "2 59051  98.6752 294.5447 0007534  24.2119 335.9411 14.22398914 91449"
      },
      "geometry": {
        "type": "Point",
        "coordinates": [
          126.2539314944976,
          52.16911617745119
        ]
      }
    },
    {
      "type": "Feature",
      "properties": {
        "norad_id": 60133,
        "name": "GOES 19",
        "group": "weather",
        "lat": 0.002164174139459359,
        "lon": -50.2599746118482,
        "alt_km": 35781.07701759701,
        "timestamp": "2025-12-03T20:47:57.859734+00:00",
        "meta_object_name": "GOES 19",
        "meta_object_id": "2024-119A",
        "meta_epoch": "2025-12-03T09:58:27.452064",
        "meta_mean_motion": 1.00270917,
        "meta_eccentricity": 0.0001285,
        "meta_inclination": 0.0141,
        "meta_ra_of_asc_node": 144.7901,
        "meta_arg_of_pericenter": 153.0578,
        "meta_mean_anomaly": 209.0932,
        "meta_ephemeris_type": 0,
        "meta_classification_type": "U",
        "meta_norad_cat_id": 60133,
        "meta_element_set_no": 999,
        "meta_rev_at_epoch": 500,
        "meta_bstar": 0,
        "meta_mean_motion_dot": -2.3e-06,
        "meta_mean_motion_ddot": 0,
        "tle_line1": "1 60133U 24119A   25337.41559551 -.00000230  00000+0  00000+0 0  9999",
        "tle_line2": "2 60133   0.0141 144.7901 0001285 153.0578 209.0932  1.00270917  5009"
      },
      "geometry": {
        "type": "Point",
        "coordinates": [
          -50.2599746118482,
          0.002164174139459359
        ]
      }
    },
    {
      "type": "Feature",
      "properties": {
        "norad_id": 65815,
        "name": "FENGYUN 3H",
        "group": "weather",
        "lat": 80.20012896578685,
        "lon": -144.23767127572899,
        "alt_km": 817.8277472481632,
        "timestamp": "2025-12-03T20:47:57.859745+00:00",
        "meta_object_name": "FENGYUN 3H",
        "meta_object_id": "2025-219A",
        "meta_epoch": "2025-12-03T10:15:05.346144",
        "meta_mean_motion": 14.1990033,
        "meta_eccentricity": 6.36e-05,
        "meta_inclination": 98.657,
        "meta_ra_of_asc_node": 277.2204,
        "meta_arg_of_pericenter": 71.2184,
        "meta_mean_anomaly": 288.9062,
        "meta_ephemeris_type": 0,
        "meta_classification_type": "U",
        "meta_norad_cat_id": 65815,
        "meta_element_set_no": 999,
        "meta_rev_at_epoch": 960,
        "meta_bstar": 8.9885e-05,
        "meta_mean_motion_dot": 1.48e-06,
        "meta_mean_motion_ddot": 0,
        "tle_line1": "1 65815U 25219A   25337.42714521  .00000148  00000+0  89885-4 0  9994",
        "tle_line2": "2 65815  98.6570 277.2204 0000636  71.2184 288.9062 14.19900330  9604"
      },
      "geometry": {
        "type": "Point",
        "coordinates": [
          -144.23767127572899,
          80.20012896578685
        ]
      }
    }
  ]
}